NORAD_CAT_ID,OBJECT_NAME,OBJECT_TYPE,EPOCH,MEAN_MOTION,ECCENTRICITY,INCLINATION,RA_OF_ASC_NODE,ARG_OF_PERICENTER,MEAN_ANOMALY,BSTAR,MEAN_MOTION_DOT,MEAN_MOTION_DDOT,TLE_LINE0,TLE_LINE1,TLE_LINE2,SEMIMAJOR_AXIS,PERIOD,APOGEE,PERIGEE,DECAYED
51152.0,STARLINK-3364,PAYLOAD,2022-07-27 04:22:05,15.08834706,0.00022,53.217,121.5953,54.2212,305.8984,0.00018307,2.626e-05,0.0,0 STARLINK-3364,1 51152U 22005BA  22208.18201237  .00002626  00000-0  18307-3 0  9999,2 51152  53.2170 121.5953 0002200  54.2212 305.8984 15.08834706 30204,6917.897,95.438,541.284,538.24,0.0
51152.0,STARLINK-3364,PAYLOAD,2022-07-28 10:34:25,15.08836037,0.000224,53.2171,115.9457,55.4445,304.6758,5.6498e-05,6.11e-06,0.0,0 STARLINK-3364,1 51152U 22005BA  22209.44057842  .00000611  00000-0  56498-4 0  9996,2 51152  53.2171 115.9457 0002240  55.4445 304.6758 15.08836037 29287,6917.893,95.438,541.307,538.2080000000002,0.0
51152.0,STARLINK-3364,PAYLOAD,2022-07-28 18:31:21,15.088429500000002,0.0002226,53.2169,114.4587,55.5407,304.5795,2.9101e-05,1.75e-06,0.0,0 STARLINK-3364,1 51152U 22005BA  22209.77177489  .00000175  00000-0  29101-4 0  9998,2 51152  53.2169 114.4587 0002226  55.5407 304.5795 15.08842950 30446,6917.871,95.437,541.276,538.196,0.0
51152.0,STARLINK-3364,PAYLOAD,2022-07-29 10:25:12,15.08839238,0.0002262,53.2168,111.4848,57.5081,302.613,-2.3105e-05,-6.56e-06,0.0,0 STARLINK-3364,1 51152U 22005BA  22210.43417737 -.00000656  00000-0 -23105-4 0  9990,2 51152  53.2168 111.4848 0002262  57.5081 302.6130 15.08839238 29436,6917.8830000000025,95.438,541.313,538.183,0.0
51152.0,STARLINK-3364,PAYLOAD,2022-07-29 18:22:08,15.08823235,0.0002154999999999,53.2164,109.9975,65.28699999999999,294.8347,0.00010208,1.336e-05,0.0,0 STARLINK-3364,1 51152U 22005BA  22210.76538126  .00001336  00000-0  10208-3 0  9995,2 51152  53.2164 109.9975 0002155  65.2870 294.8347 15.08823235 29485,6917.932,95.439,541.2869999999998,538.306,0.0
51152.0,STARLINK-3364,PAYLOAD,2022-07-30 10:16:00,15.08835443,0.0002289,53.2173,107.0243,57.49800000000001,302.6233,2.631e-05,1.3e-06,0.0,0 STARLINK-3364,1 51152U 22005BA  22211.42778038  .00000130  00000-0  26310-4 0  9990,2 51152  53.2173 107.0243 0002289  57.4980 302.6233 15.08835443 29582,6917.894,95.438,541.3430000000002,538.1759999999998,0.0
51152.0,STARLINK-3364,PAYLOAD,2022-07-31 10:06:46,15.08842077,0.0002264,53.2174,102.5643,59.5819,300.5397,7.378199999999999e-05,8.86e-06,0.0,0 STARLINK-3364,1 51152U 22005BA  22212.42137454  .00000886  00000-0  73782-4 0  9995,2 51152  53.2174 102.5643 0002264  59.5819 300.5397 15.08842077 29730,6917.874,95.437,541.305,538.173,0.0
51152.0,STARLINK-3364,PAYLOAD,2022-07-31 19:39:05,15.0884228,0.0002247,53.2173,100.7798,59.8648,300.2567,0.00012351,1.678e-05,0.0,0 STARLINK-3364,1 51152U 22005BA  22212.81881234  .00001678  00000-0  12351-3 0  9994,2 51152  53.2173 100.7798 0002247  59.8648 300.2567 15.08842280 29792,6917.873000000001,95.437,541.293,538.184,0.0
51152.0,STARLINK-3364,PAYLOAD,2022-08-01 09:57:32,15.08850136,0.0002282,53.2173,98.1036,60.8663,299.2558,0.00014097,1.957e-05,0.0,0 STARLINK-3364,1 51152U 22005BA  22213.41496471  .00001957  00000-0  14097-3 0  9995,2 51152  53.2173  98.1036 0002282  60.8663 299.2558 15.08850136 29881,6917.849,95.437,541.293,538.136,0.0
51152.0,STARLINK-3364,PAYLOAD,2022-08-01 19:29:52,15.08838915,0.0002333,53.2174,96.3201,62.7594,297.3635,8.1924e-06,-1.58e-06,0.0,0 STARLINK-3364,1 51152U 22005BA  22213.81241495 -.00000158  00000-0  81924-5 0  9991,2 51152  53.2174  96.3201 0002333  62.7594 297.3635 15.08838915 31055,6917.884,95.438,541.363,538.135,0.0
51152.0,STARLINK-3364,PAYLOAD,2022-08-01 22:40:38,15.08840625,0.0002339,53.2174,95.7254,63.2174,296.9057,2.1189e-05,4.9e-07,0.0,0 STARLINK-3364,1 51152U 22005BA  22213.94489329  .00000049  00000-0  21189-4 0  9999,2 51152  53.2174  95.7254 0002339  63.2174 296.9057 15.08840625 29963,6917.878000000002,95.438,541.362,538.125,0.0
51152.0,STARLINK-3364,PAYLOAD,2022-08-02 01:51:25,15.08841147,0.0002334,53.2175,95.1305,64.096,296.0273,4.1572000000000015e-06,-2.22e-06,0.0,0 STARLINK-3364,1 51152U 22005BA  22214.07737326 -.00000222  00000-0  41572-5 0  9990,2 51152  53.2175  95.1305 0002334  64.0960 296.0273 15.08841147 29985,6917.877,95.437,541.357,538.127,0.0
51152.0,STARLINK-3364,PAYLOAD,2022-08-03 01:42:10,15.08851248,0.0002106999999999,53.2171,90.6687,63.1839,296.9369,2.0063e-05,3.1e-07,0.0,0 STARLINK-3364,1 51152U 22005BA  22215.07095814  .00000031  00000-0  20063-4 0  9998,2 51152  53.2171  90.6687 0002107  63.1839 296.9369 15.08851248 30134,6917.846,95.437,541.169,538.253,0.0
51152.0,STARLINK-3364,PAYLOAD,2022-08-03 17:36:03,15.08829617,0.0002000999999999,53.2169,87.6953,65.4037,294.7163,-1.9447e-05,-5.98e-06,0.0,0 STARLINK-3364,1 51152U 22005BA  22215.73337279 -.00000598  00000-0 -19447-4 0  9999,2 51152  53.2169  87.6953 0002001  65.4037 294.7163 15.08829617 31348,6917.9119999999975,95.438,541.161,538.393,0.0
51152.0,STARLINK-3364,PAYLOAD,2022-08-04 03:08:22,15.0883565,0.0002169,53.2165,85.9119,64.4693,295.6523,3.4388e-06,-2.34e-06,0.0,0 STARLINK-3364,1 51152U 22005BA  22216.13081046 -.00000234  00000-0  34388-5 0  9990,2 51152  53.2165  85.9119 0002169  64.4693 295.6523 15.08835650 31402,6917.894,95.438,541.259,538.258,0.0
51152.0,STARLINK-3364,PAYLOAD,2022-08-04 15:51:26,15.08846413,0.0002362,53.2165,83.5327,74.1417,285.9835,-8.6141e-05,-1.659e-05,0.0,0 STARLINK-3364,1 51152U 22005BA  22216.66072651 -.00001659  00000-0 -86141-4 0  9996,2 51152  53.2165  83.5327 0002362  74.1417 285.9835 15.08846413 31489,6917.861,95.437,541.36,538.092,0.0
51152.0,STARLINK-3364,PAYLOAD,2022-08-04 17:26:49,15.08846635,0.0002169,53.2164,83.2354,66.9187,293.2034,-7.3e-05,-1.4499999999999992e-05,0.0,0 STARLINK-3364,1 51152U 22005BA  22216.72696578 -.00001450  00000-0 -73000-4 0  9992,2 51152  53.2164  83.2354 0002169  66.9187 293.2034 15.08846635 30380,6917.86,95.437,541.226,538.225,0.0
51152.0,STARLINK-3364,PAYLOAD,2022-08-05 01:23:45,15.08843945,0.0002173,53.2165,81.7484,68.2217,291.9006,-8.2926e-05,-1.608e-05,0.0,0 STARLINK-3364,1 51152U 22005BA  22217.05816720 -.00001608  00000-0 -82926-4 0  9994,2 51152  53.2165  81.7484 0002173  68.2217 291.9006 15.08843945 30433,6917.868,95.437,541.237,538.23,0.0
51152.0,STARLINK-3364,PAYLOAD,2022-08-05 17:17:38,15.08827761,0.0002020999999999,53.2208,78.7789,70.1311,289.9898,-7.7486e-06,-4.11e-06,0.0,0 STARLINK-3364,1 51152U 22005BA  22217.72058129 -.00000411  00000-0 -77486-5 0  9996,2 51152  53.2208  78.7789 0002021  70.1311 289.9898 15.08827761 31642,6917.918000000002,95.438,541.181,538.385,0.0
51152.0,STARLINK-3364,PAYLOAD,2022-08-06 07:36:05,15.08858306,0.0002198999999999,53.2172,76.0967,66.1475,293.9747,-0.0002878999999999,-4.870000000000001e-05,0.0,0 STARLINK-3364,1 51152U 22005BA  22218.31673185 -.00004870  00000-0 -28790-3 0  9992,2 51152  53.2172  76.0967 0002199  66.1475 293.9747 15.08858306 30627,6917.824000000001,95.436,541.211,538.168,0.0
51152.0,STARLINK-3364,PAYLOAD,2022-08-06 18:43:48,15.0883997,0.0002043,53.217,74.0171,69.0489,291.0721,7.5882e-05,9.2e-06,0.0,0 STARLINK-3364,1 51152U 22005BA  22218.78041715  .00000920  00000-0  75882-4 0  9996,2 51152  53.2170  74.0171 0002043  69.0489 291.0721 15.08839970 31803,6917.88,95.438,541.159,538.332,0.0
51152.0,STARLINK-3364,PAYLOAD,2022-08-06 20:19:10,15.08841869,0.000188,53.2165,73.7179,39.5349,320.578,0.00011153,1.487e-05,0.0,0 STARLINK-3364,1 51152U 22005BA  22218.84665474  .00001487  00000-0  11153-3 0  9996,2 51152  53.2165  73.7179 0001880  39.5349 320.5780 15.08841869 30707,6917.875,95.437,541.04,538.439,0.0
51152.0,STARLINK-3364,PAYLOAD,2022-08-07 07:26:52,15.08842997,0.0002026,53.2172,71.638,68.4276,291.6931,0.0001918,2.766e-05,0.0,0 STARLINK-3364,1 51152U 22005BA  22219.31033426  .00002766  00000-0  19180-3 0  9994,2 51152  53.2172  71.6380 0002026  68.4276 291.6931 15.08842997 30775,6917.871,95.437,541.138,538.335,0.0
51152.0,STARLINK-3364,PAYLOAD,2022-08-07 20:09:58,15.08837696,0.0001969,53.2173,69.2584,69.8397,290.2807,9.8273e-05,1.276e-05,0.0,0 STARLINK-3364,1 51152U 22005BA  22219.84026136  .00001276  00000-0  98273-4 0  9998,2 51152  53.2173  69.2584 0001969  69.8397 290.2807 15.08837696 30855,6917.887,95.438,541.115,538.39,0.0
51152.0,STARLINK-3364,PAYLOAD,2022-08-07 23:20:44,15.08836719,0.0001973,53.2172,68.6637,68.4463,291.6739,7.7921e-05,9.52e-06,0.0,0 STARLINK-3364,1 51152U 22005BA  22219.97274212  .00000952  00000-0  77921-4 0  9999,2 51152  53.2172  68.6637 0001973  68.4463 291.6739 15.08836719 31989,6917.89,95.438,541.12,538.391,0.0
51152.0,STARLINK-3364,PAYLOAD,2022-08-08 07:17:40,15.08843184,0.0002,53.2173,67.1769,69.1122,291.0084,0.00012115,1.641e-05,0.0,0 STARLINK-3364,1 51152U 22005BA  22220.30393748  .00001641  00000-0  12115-3 0  9993,2 51152  53.2173  67.1769 0002000  69.1122 291.0084 15.08843184 30926,6917.871,95.437,541.119,538.352,0.0
51152.0,STARLINK-3364,PAYLOAD,2022-08-08 20:00:44,15.08852362,0.0001976,53.2172,64.7981,69.6607,290.4597,0.00016731,2.376e-05,0.0,0 STARLINK-3364,1 51152U 22005BA  22220.83384910  .00002376  00000-0  16731-3 0  9996,2 51152  53.2172  64.7981 0001976  69.6607 290.4597 15.08852362 32111,6917.843000000003,95.437,541.075,538.341,0.0
51152.0,STARLINK-3364,PAYLOAD,2022-08-09 07:08:26,15.08854208,0.0001995,53.2166,62.7164,69.6493,290.4713,0.0001991,2.883e-05,0.0,0 STARLINK-3364,1 51152U 22005BA  22221.29752836  .00002883  00000-0  19910-3 0  9998,2 51152  53.2166  62.7164 0001995  69.6493 290.4713 15.08854208 31074,6917.837,95.437,541.082,538.322,0.0
51152.0,STARLINK-3364,PAYLOAD,2022-08-09 16:40:45,15.08840764,0.0001733999999999,53.2163,60.931,75.9967,284.1218,5.2433e-05,5.47e-06,0.0,0 STARLINK-3364,1 51152U 22005BA  22221.69497326  .00000547  00000-0  52433-4 0  9995,2 51152  53.2163  60.9310 0001734  75.9967 284.1218 15.08840764 31130,6917.878000000002,95.438,540.943,538.543,0.0
